{
  "type": "FeatureCollection",
  "features": [
    {
      "type": "Feature",
      "properties": {
        "norad_id": 33939,
        "name": "COSMOS 2251 DEB",
        "group": "cosmos-2251-debris",
        "lat": -19.577279199723147,
        "lon": 81.8991262425958,
        "alt_km": 573.8284604516402,
        "timestamp": "2025-12-09T05:43:21.119486+00:00",
        "meta_object_name": "COSMOS 2251 DEB",
        "meta_object_id": "1993-036EU",
        "meta_epoch": "2025-12-08T13:48:00.874368",
        "meta_mean_motion": 14.99379626,
        "meta_eccentricity": 0.0003093,
        "meta_inclination": 74.0073,
        "meta_ra_of_asc_node": 89.1022,
        "meta_arg_of_pericenter": 81.9109,
        "meta_mean_anomaly": 278.2428,
        "meta_ephemeris_type": 0,
        "meta_classification_type": "U",
        "meta_norad_cat_id": 33939,
        "meta_element_set_no": 999,
        "meta_rev_at_epoch": 88690,
        "meta_bstar": 0.0043322,
        "meta_mean_motion_dot": 0.00053403,
        "meta_mean_motion_ddot": 0,
        "tle_line1": "1 33939U 93036EU  25342.57501012  .00053403  00000+0  43322-2 0  9995",
        "tle_line2": "2 33939  74.0073  89.1022 0003093  81.9109 278.2428 14.99379626886905"
      },
      "geometry": {
        "type": "Point",
        "coordinates": [
          81.8991262425958,
          -19.577279199723147
        ]
      }
    },
    {
      "type": "Feature",
      "properties": {
        "norad_id": 33940,
        "name": "COSMOS 2251 DEB",
        "group": "cosmos-2251-debris",
        "lat": -73.43282224546341,
        "lon": 44.31768333068286,
        "alt_km": 697.6201386754592,
        "timestamp": "2025-12-09T05:43:21.119496+00:00",
        "meta_object_name": "COSMOS 2251 DEB",
        "meta_object_id": "1993-036EV",
        "meta_epoch": "2025-12-08T20:50:04.062912",
        "meta_mean_motion": 14.58734189,
        "meta_eccentricity": 0.0011487,
        "meta_inclination": 74.0397,
        "meta_ra_of_asc_node": 150.8684,
        "meta_arg_of_pericenter": 230.3464,
        "meta_mean_anomaly": 251.0956,
        "meta_ephemeris_type": 0,
        "meta_classification_type": "U",
        "meta_norad_cat_id": 33940,
        "meta_element_set_no": 999,
        "meta_rev_at_epoch": 88537,
        "meta_bstar": 0.0018239,
        "meta_mean_motion_dot": 8.504e-05,
        "meta_mean_motion_ddot": 0,
        "tle_line1": "1 33940U 93036EV  25342.86810258  .00008504  00000+0  18239-2 0  9995",
        "tle_line2": "2 33940  74.0397 150.8684 0011487 230.3464 251.0956 14.58734189885375"
      },
      "geometry": {
        "type": "Point",
        "coordinates": [
          44.31768333068286,
          -73.43282224546341
        ]
      }
    },
    {
      "type": "Feature",
      "properties": {
        "norad_id": 33942,
        "name": "COSMOS 2251 DEB",
        "group": "cosmos-2251-debris",
        "lat": 4.123209418058014,
        "lon": -77.540438833306,
        "alt_km": 752.8596383752947,
        "timestamp": "2025-12-09T05:43:21.119507+00:00",
        "meta_object_name": "COSMOS 2251 DEB",
        "meta_object_id": "1993-036EX",
        "meta_epoch": "2025-12-08T13:48:15.532128",
        "meta_mean_motion": 14.37979655,
        "meta_eccentricity": 0.0020123,
        "meta_inclination": 74.0365,
        "meta_ra_of_asc_node": 282.4982,
        "meta_arg_of_pericenter": 6.629,
        "meta_mean_anomaly": 165.6477,
        "meta_ephemeris_type": 0,
        "meta_classification_type": "U",
        "meta_norad_cat_id": 33942,
        "meta_element_set_no": 999,
        "meta_rev_at_epoch": 88074,
        "meta_bstar": 0.00047635,
        "meta_mean_motion_dot": 1.417e-05,
        "meta_mean_motion_ddot": 0,
        "tle_line1": "1 33942U 93036EX  25342.57517977  .00001417  00000+0  47635-3 0  9996",
        "tle_line2": "2 33942  74.0365 282.4982 0020123   6.6290 165.6477 14.37979655880743"
      },
      "geometry": {
        "type": "Point",
        "coordinates": [
          -77.540438833306,
          4.123209418058014
        ]
      }
    },
    {
      "type": "Feature",
      "properties": {
        "norad_id": 33944,
        "name": "COSMOS 2251 DEB",
        "group": "cosmos-2251-debris",
        "lat": -62.12304579870145,
        "lon": 168.12130250006774,
        "alt_km": 852.7391140771779,
        "timestamp": "2025-12-09T05:43:21.119517+00:00",
        "meta_object_name": "COSMOS 2251 DEB",
        "meta_object_id": "1993-036EZ",
        "meta_epoch": "2025-12-08T16:01:01.452288",
        "meta_mean_motion": 14.37330886,
        "meta_eccentricity": 0.0112035,
        "meta_inclination": 74.04,
        "meta_ra_of_asc_node": 316.4186,
        "meta_arg_of_pericenter": 57.09,
        "meta_mean_anomaly": 116.2446,
        "meta_ephemeris_type": 0,
        "meta_classification_type": "U",
        "meta_norad_cat_id": 33944,
        "meta_element_set_no": 999,
        "meta_rev_at_epoch": 87969,
        "meta_bstar": 0.00062363,
        "meta_mean_motion_dot": 1.974e-05,
        "meta_mean_motion_ddot": 0,
        "tle_line1": "1 33944U 93036EZ  25342.66737792  .00001974  00000+0  62363-3 0  9990",
        "tle_line2": "2 33944  74.0400 316.4186 0112035  57.0900 116.2446 14.37330886879698"
      },
      "geometry": {
        "type": "Point",
        "coordinates": [
          168.12130250006774,
          -62.12304579870145
        ]
      }
    },
    {
      "type": "Feature",
      "properties": {
        "norad_id": 33945,
        "name": "COSMOS 2251 DEB",
        "group": "cosmos-2251-debris",
        "lat": 67.85304148440332,
        "lon": -2.6002730332257964,
        "alt_km": 756.5933027515639,
        "timestamp": "2025-12-09T05:43:21.119528+00:00",
        "meta_object_name": "COSMOS 2251 DEB",
        "meta_object_id": "1993-036FA",
        "meta_epoch": "2025-12-08T15:59:21.339744",
        "meta_mean_motion": 14.34596303,
        "meta_eccentricity": 0.0021747,
        "meta_inclination": 74.0295,
        "meta_ra_of_asc_node": 313.7315,
        "meta_arg_of_pericenter": 41.3073,
        "meta_mean_anomaly": 318.9719,
        "meta_ephemeris_type": 0,
        "meta_classification_type": "U",
        "meta_norad_cat_id": 33945,
        "meta_element_set_no": 999,
        "meta_rev_at_epoch": 87957,
        "meta_bstar": 0.00028566,
        "meta_mean_motion_dot": 7.83e-06,
        "meta_mean_motion_ddot": 0,
        "tle_line1": "1 33945U 93036FA  25342.66621921  .00000783  00000+0  28566-3 0  9991",
        "tle_line2": "2 33945  74.0295 313.7315 0021747  41.3073 318.9719 14.34596303879577"
      },
      "geometry": {
        "type": "Point",
        "coordinates": [
          -2.6002730332257964,
          67.85304148440332
        ]
      }
    },
    {
      "type": "Feature",
      "properties": {
        "norad_id": 33948,
        "name": "COSMOS 2251 DEB",
        "group": "cosmos-2251-debris",
        "lat": -74.0249608612583,
        "lon": -137.95455647974566,
        "alt_km": 787.565730779359,
        "timestamp": "2025-12-09T05:43:21.119538+00:00",
        "meta_object_name": "COSMOS 2251 DEB",
        "meta_object_id": "1993-036FD",
        "meta_epoch": "2025-12-08T08:23:55.044960",
        "meta_mean_motion": 14.35621518,
        "meta_eccentricity": 0.00225209,
        "meta_inclination": 74.0353,
        "meta_ra_of_asc_node": 313.1886,
        "meta_arg_of_pericenter": 30.2733,
        "meta_mean_anomaly": 329.9715,
        "meta_ephemeris_type": 0,
        "meta_classification_type": "U",
        "meta_norad_cat_id": 33948,
        "meta_element_set_no": 999,
        "meta_rev_at_epoch": 87960,
        "meta_bstar": 0.00038428203,
        "meta_mean_motion_dot": 1.085e-05,
        "meta_mean_motion_ddot": 0,
        "tle_line1": "1 33948U 93036FD  25342.34994265  .00001085  00000+0  38428-3 0  9997",
        "tle_line2": "2 33948  74.0353 313.1886 0022520  30.2733 329.9715 14.35621518879602"
      },
      "geometry": {
        "type": "Point",
        "coordinates": [
          -137.95455647974566,
          -74.0249608612583
        ]
      }
    },
    {
      "type": "Feature",
      "properties": {
        "norad_id": 33971,
        "name": "COSMOS 2251 DEB",
        "group": "cosmos-2251-debris",
        "lat": -67.26245182655968,
        "lon": -142.91738641248585,
        "alt_km": 762.880073349389,
        "timestamp": "2025-12-09T05:43:21.119549+00:00",
        "meta_object_name": "COSMOS 2251 DEB",
        "meta_object_id": "1993-036FE",
        "meta_epoch": "2025-12-08T20:19:09.511968",
        "meta_mean_motion": 14.39715645,
        "meta_eccentricity": 0.0018365,
        "meta_inclination": 74.025,
        "meta_ra_of_asc_node": 260.9276,
        "meta_arg_of_pericenter": 2.083,
        "meta_mean_anomaly": 54.6648,
        "meta_ephemeris_type": 0,
        "meta_classification_type": "U",
        "meta_norad_cat_id": 33971,
        "meta_element_set_no": 999,
        "meta_rev_at_epoch": 88083,
        "meta_bstar": 0.00058896,
        "meta_mean_motion_dot": 1.822e-05,
        "meta_mean_motion_ddot": 0,
        "tle_line1": "1 33971U 93036FE  25342.84663787  .00001822  00000+0  58896-3 0  9990",
        "tle_line2": "2 33971  74.0250 260.9276 0018365   2.0830  54.6648 14.39715645880836"
      },
      "geometry": {
        "type": "Point",
        "coordinates": [
          -142.91738641248585,
          -67.26245182655968
        ]
      }
    }
  ]
}